{"type": "FeatureCollection", "features": [{"type": "Feature", "properties": {"norad_id": 2807, "name": "OPS 7218 (TRANSIT 16)", "group": "nnss", "lat": 63.69773145057523, "lon": -5.037960988977736, "alt_km": 1058.865786292552, "timestamp": "2025-12-04T03:47:54.811782+00:00", "meta": {"OBJECT_NAME": "OPS 7218 (TRANSIT 16)", "OBJECT_ID": "1967-048A", "EPOCH": "2025-12-03T12:06:54.103104", "MEAN_MOTION": 13.50719477, "ECCENTRICITY": 0.0021476, "INCLINATION": 89.6735, "RA_OF_ASC_NODE": 354.3226, "ARG_OF_PERICENTER": 138.9624, "MEAN_ANOMALY": 349.3026, "EPHEMERIS_TYPE": 0, "CLASSIFICATION_TYPE": "U", "NORAD_CAT_ID": 2807, "ELEMENT_SET_NO": 999, "REV_AT_EPOCH": 88151, "BSTAR": 0.00022718, "MEAN_MOTION_DOT": 1.57e-06, "MEAN_MOTION_DDOT": 0}, "tle": {"line1": "1 02807U 67048A   25337.50479286  .00000157  00000+0  22718-3 0  9998", "line2": "2 02807  89.6735 354.3226 0021476 138.9624 349.3026 13.50719477881519"}}, "geometry": {"type": "Point", "coordinates": [-5.037960988977736, 63.69773145057523]}}, {"type": "Feature", "properties": {"norad_id": 2965, "name": "OPS 4947 (TRANSIT 17)", "group": "nnss", "lat": 44.430060068382915, "lon": 25.825039704785343, "alt_km": 1083.4059867945216, "timestamp": "2025-12-04T03:47:54.811804+00:00", "meta": {"OBJECT_NAME": "OPS 4947 (TRANSIT 17)", "OBJECT_ID": "1967-092A", "EPOCH": "2025-12-03T09:53:28.687776", "MEAN_MOTION": 13.53450021, "ECCENTRICITY": 0.0045778, "INCLINATION": 89.2506, "RA_OF_ASC_NODE": 25.1466, "ARG_OF_PERICENTER": 262.5485, "MEAN_ANOMALY": 108.3355, "EPHEMERIS_TYPE": 0, "CLASSIFICATION_TYPE": "U", "NORAD_CAT_ID": 2965, "ELEMENT_SET_NO": 999, "REV_AT_EPOCH": 86971, "BSTAR": 0.00024869, "MEAN_MOTION_DOT": 1.79e-06, "MEAN_MOTION_DDOT": 0}, "tle": {"line1": "1 02965U 67092A   25337.41213759  .00000179  00000+0  24869-3 0  9996", "line2": "2 02965  89.2506  25.1466 0045778 262.5485 108.3355 13.53450021869711"}}, "geometry": {"type": "Point", "coordinates": [25.825039704785343, 44.430060068382915]}}, {"type": "Feature", "properties": {"norad_id": 3133, "name": "OPS 7034 (TRANSIT 18)", "group": "nnss", "lat": -72.39764881924113, "lon": 93.53005023263171, "alt_km": 1045.0328005532565, "timestamp": "2025-12-04T03:47:54.811817+00:00", "meta": {"OBJECT_NAME": "OPS 7034 (TRANSIT 18)", "OBJECT_ID": "1968-012A", "EPOCH": "2025-12-03T09:21:57.300192", "MEAN_MOTION": 13.51562445, "ECCENTRICITY": 0.0072979, "INCLINATION": 90.0269, "RA_OF_ASC_NODE": 273.6128, "ARG_OF_PERICENTER": 196.3448, "MEAN_ANOMALY": 280.6016, "EPHEMERIS_TYPE": 0, "CLASSIFICATION_TYPE": "U", "NORAD_CAT_ID": 3133, "ELEMENT_SET_NO": 999, "REV_AT_EPOCH": 56792, "BSTAR": 0.00017779, "MEAN_MOTION_DOT": 1.27e-06, "MEAN_MOTION_DDOT": 0}, "tle": {"line1": "1 03133U 68012A   25337.39024653  .00000127  00000+0  17779-3 0  9992", "line2": "2 03133  90.0269 273.6128 0072979 196.3448 280.6016 13.51562445567924"}}, "geometry": {"type": "Point", "coordinates": [93.53005023263171, -72.39764881924113]}}, {"type": "Feature", "properties": {"norad_id": 4507, "name": "NNSS 19 (TRANSIT 19)", "group": "nnss", "lat": -48.98279714454239, "lon": 54.52126225554902, "alt_km": 1071.1417541053288, "timestamp": "2025-12-04T03:47:54.811829+00:00", "meta": {"OBJECT_NAME": "NNSS 19 (TRANSIT 19)", "OBJECT_ID": "1970-067A", "EPOCH": "2025-12-03T10:39:33.759936", "MEAN_MOTION": 13.51311161, "ECCENTRICITY": 0.0171187, "INCLINATION": 90.0056, "RA_OF_ASC_NODE": 234.5273, "ARG_OF_PERICENTER": 320.5051, "MEAN_ANOMALY": 38.3724, "EPHEMERIS_TYPE": 0, "CLASSIFICATION_TYPE": "U", "NORAD_CAT_ID": 4507, "ELEMENT_SET_NO": 999, "REV_AT_EPOCH": 72096, "BSTAR": 0.00028364, "MEAN_MOTION_DOT": 2.1e-06, "MEAN_MOTION_DDOT": 0}, "tle": {"line1": "1 04507U 70067A   25337.44414074  .00000210  00000+0  28364-3 0  9992", "line2": "2 04507  90.0056 234.5273 0171187 320.5051  38.3724 13.51311161720969"}}, "geometry": {"type": "Point", "coordinates": [54.52126225554902, -48.98279714454239]}}, {"type": "Feature", "properties": {"norad_id": 6909, "name": "NNSS 20 (TRANSIT 20)", "group": "nnss", "lat": 41.221625504108474, "lon": -104.69063996236117, "alt_km": 936.3391634657946, "timestamp": "2025-12-04T03:47:54.811840+00:00", "meta": {"OBJECT_NAME": "NNSS 20 (TRANSIT 20)", "OBJECT_ID": "1973-081A", "EPOCH": "2025-12-03T11:50:21.755040", "MEAN_MOTION": 13.71427816, "ECCENTRICITY": 0.0156481, "INCLINATION": 89.8557, "RA_OF_ASC_NODE": 255.1929, "ARG_OF_PERICENTER": 105.6968, "MEAN_ANOMALY": 256.1519, "EPHEMERIS_TYPE": 0, "CLASSIFICATION_TYPE": "U", "NORAD_CAT_ID": 6909, "ELEMENT_SET_NO": 999, "REV_AT_EPOCH": 80234, "BSTAR": 0.00028959, "MEAN_MOTION_DOT": 2.96e-06, "MEAN_MOTION_DDOT": 0}, "tle": {"line1": "1 06909U 73081A   25337.49330735  .00000296  00000+0  28959-3 0  9999", "line2": "2 06909  89.8557 255.1929 0156481 105.6968 256.1519 13.71427816802347"}}, "geometry": {"type": "Point", "coordinates": [-104.69063996236117, 41.221625504108474]}}, {"type": "Feature", "properties": {"norad_id": 10457, "name": "TRANSAT", "group": "nnss", "lat": -50.824318970416535, "lon": 78.4687246204495, "alt_km": 1084.4996037195206, "timestamp": "2025-12-04T03:47:54.811850+00:00", "meta": {"OBJECT_NAME": "TRANSAT", "OBJECT_ID": "1977-106A", "EPOCH": "2025-12-03T19:44:22.543296", "MEAN_MOTION": 13.48941362, "ECCENTRICITY": 0.0024587, "INCLINATION": 89.6482, "RA_OF_ASC_NODE": 78.9126, "ARG_OF_PERICENTER": 215.8171, "MEAN_ANOMALY": 263.4628, "EPHEMERIS_TYPE": 0, "CLASSIFICATION_TYPE": "U", "NORAD_CAT_ID": 10457, "ELEMENT_SET_NO": 999, "REV_AT_EPOCH": 36623, "BSTAR": 0.00015959, "MEAN_MOTION_DOT": 1.1e-06, "MEAN_MOTION_DDOT": 0}, "tle": {"line1": "1 10457U 77106A   25337.82248314  .00000110  00000+0  15959-3 0  9993", "line2": "2 10457  89.6482  78.9126 0024587 215.8171 263.4628 13.48941362366232"}}, "geometry": {"type": "Point", "coordinates": [78.4687246204495, -50.824318970416535]}}, {"type": "Feature", "properties": {"norad_id": 12458, "name": "NOVA 1", "group": "nnss", "lat": -77.66469044118547, "lon": 90.8302173800981, "alt_km": 1190.5496031081266, "timestamp": "2025-12-04T03:47:54.811861+00:00", "meta": {"OBJECT_NAME": "NOVA 1", "OBJECT_ID": "1981-044A", "EPOCH": "2025-12-03T19:41:31.515360", "MEAN_MOTION": 13.23276887, "ECCENTRICITY": 0.0015607, "INCLINATION": 89.8522, "RA_OF_ASC_NODE": 91.5113, "ARG_OF_PERICENTER": 125.9571, "MEAN_ANOMALY": 348.2008, "EPHEMERIS_TYPE": 0, "CLASSIFICATION_TYPE": "U", "NORAD_CAT_ID": 12458, "ELEMENT_SET_NO": 999, "REV_AT_EPOCH": 15068, "BSTAR": 0.0001399, "MEAN_MOTION_DOT": 6.8e-07, "MEAN_MOTION_DDOT": 0}, "tle": {"line1": "1 12458U 81044A   25337.82050365  .00000068  00000+0  13990-3 0  9994", "line2": "2 12458  89.8522  91.5113 0015607 125.9571 348.2008 13.23276887150687"}}, "geometry": {"type": "Point", "coordinates": [90.8302173800981, -77.66469044118547]}}, {"type": "Feature", "properties": {"norad_id": 15362, "name": "NOVA 3", "group": "nnss", "lat": 17.613845035922314, "lon": -99.52742035431169, "alt_km": 1196.4041753503689, "timestamp": "2025-12-04T03:47:54.811886+00:00", "meta": {"OBJECT_NAME": "NOVA 3", "OBJECT_ID": "1984-110A", "EPOCH": "2025-12-03T16:44:18.682080", "MEAN_MOTION": 13.2304267, "ECCENTRICITY": 0.0031227, "INCLINATION": 90.1226, "RA_OF_ASC_NODE": 80.4282, "ARG_OF_PERICENTER": 357.3502, "MEAN_ANOMALY": 131.1814, "EPHEMERIS_TYPE": 0, "CLASSIFICATION_TYPE": "U", "NORAD_CAT_ID": 15362, "ELEMENT_SET_NO": 999, "REV_AT_EPOCH": 98579, "BSTAR": 4.6821e-05, "MEAN_MOTION_DOT": 2.8e-07, "MEAN_MOTION_DDOT": 0}, "tle": {"line1": "1 15362U 84110A   25337.69743845  .00000028  00000+0  46821-4 0  9991", "line2": "2 15362  90.1226  80.4282 0031227 357.3502 131.1814 13.23042670985798"}}, "geometry": {"type": "Point", "coordinates": [-99.52742035431169, 17.613845035922314]}}, {"type": "Feature", "properties": {"norad_id": 15935, "name": "OSCAR 30", "group": "nnss", "lat": -22.928529611908388, "lon": -80.36284204307971, "alt_km": 1138.2123238201502, "timestamp": "2025-12-04T03:47:54.811900+00:00", "meta": {"OBJECT_NAME": "OSCAR 30", "OBJECT_ID": "1985-066A", "EPOCH": "2025-12-03T20:12:26.455104", "MEAN_MOTION": 13.36075964, "ECCENTRICITY": 0.0169352, "INCLINATION": 90.1646, "RA_OF_ASC_NODE": 99.7017, "ARG_OF_PERICENTER": 108.7393, "MEAN_ANOMALY": 11.6725, "EPHEMERIS_TYPE": 0, "CLASSIFICATION_TYPE": "U", "NORAD_CAT_ID": 15935, "ELEMENT_SET_NO": 999, "REV_AT_EPOCH": 96334, "BSTAR": 0.0002066, "MEAN_MOTION_DOT": 1.25e-06, "MEAN_MOTION_DDOT": 0}, "tle": {"line1": "1 15935U 85066A   25337.84197286  .00000125  00000+0  20660-3 0  9997", "line2": "2 15935  90.1646  99.7017 0169352 108.7393  11.6725 13.36075964963342"}}, "geometry": {"type": "Point", "coordinates": [-80.36284204307971, -22.928529611908388]}}, {"type": "Feature", "properties": {"norad_id": 15936, "name": "OSCAR 24", "group": "nnss", "lat": -78.95236384539885, "lon": 93.06940857125156, "alt_km": 1256.2789550073148, "timestamp": "2025-12-04T03:47:54.811911+00:00", "meta": {"OBJECT_NAME": "OSCAR 24", "OBJECT_ID": "1985-066B", "EPOCH": "2025-12-03T19:48:06.613056", "MEAN_MOTION": 13.35933574, "ECCENTRICITY": 0.0170384, "INCLINATION": 90.1787, "RA_OF_ASC_NODE": 92.1477, "ARG_OF_PERICENTER": 115.2258, "MEAN_ANOMALY": 3.8692, "EPHEMERIS_TYPE": 0, "CLASSIFICATION_TYPE": "U", "NORAD_CAT_ID": 15936, "ELEMENT_SET_NO": 999, "REV_AT_EPOCH": 96524, "BSTAR": 0.00014632, "MEAN_MOTION_DOT": 9.2e-07, "MEAN_MOTION_DDOT": 0}, "tle": {"line1": "1 15936U 85066B   25337.82507654  .00000092  00000+0  14632-3 0  9995", "line2": "2 15936  90.1787  92.1477 0170384 115.2258   3.8692 13.35933574965242"}}, "geometry": {"type": "Point", "coordinates": [93.06940857125156, -78.95236384539885]}}]}